ORBCOMM FM103           
1 40091U 14040F   24238.56053936  .00001761  00000+0  42543-3 0  9994
2 40091  47.0063 332.8116 0002061 330.6991  29.3778 14.56945537520978
ORBCOMM FM114           
1 41179U 15081A   24238.45291540  .00002157  00000+0  51240-3 0  9995
2 41179  47.0006 242.5281 0001440  28.0609 332.0354 14.56973370461320
ORBCOMM FM119           
1 41180U 15081B   24238.49693740  .00001777  00000+0  42923-3 0  9994
2 41180  46.9995 151.5483 0000883 150.9347 209.1587 14.56921019462588
ORBCOMM FM105           
1 41181U 15081C   24238.06710976  .00000921  00000+0  30897-3 0  9996
2 41181  47.0015 130.2959 0001343  62.2530 297.8486 14.44572323457928
ORBCOMM FM110           
1 41182U 15081D   24238.49821357  .00001840  00000+0  44195-3 0  9997
2 41182  46.9996 241.7077 0002637 266.0904  93.9679 14.57033189461201
ORBCOMM FM118           
1 41183U 15081E   24238.40750408  .00001295  00000+0  32224-3 0  9991
2 41183  47.0029 242.4690 0002825 260.8500  99.2065 14.57014271461291
ORBCOMM FM112           
1 41184U 15081F   24238.47402220  .00002622  00000+0  61550-3 0  9994
2 41184  46.9979 150.8552 0001218 104.9626 255.1394 14.56912269462523
ORBCOMM FM113           
1 41185U 15081G   24238.45113398  .00002498  00000+0  58815-3 0  9999
2 41185  46.9996 151.2459 0000911 130.7770 229.3194 14.56919975462500
